<?xml version="1.0" encoding="UTF-8"?>
<osm version="0.6" generator="Overpass API 0.7.56.9 76e5016d">
<note>The data included in this document is from www.openstreetmap.org. The data is made available under ODbL.</note>

  <node id="4750657909" lat="49.2150369" lon="13.1602846">
    <tag k="amenity" v="telephone"/>
    <tag k="operator" v="Telefónica O2"/>
  </node>
  <node id="7033868120" lat="49.3603531" lon="13.3538269">
    <tag k="amenity" v="telephone"/>
    <tag k="covered" v="booth"/>
  </node>
  <node id="3907979030" lat="49.6139282" lon="12.8356413">
    <tag k="amenity" v="telephone"/>
    <tag k="operator" v="O2"/>
    <tag k="phone" v="+420379496550"/>
  </node>
  <node id="3907979027" lat="49.5861257" lon="12.9944499">
    <tag k="amenity" v="telephone"/>
    <tag k="operator" v="O2"/>
    <tag k="phone" v="+420379493192"/>
  </node>
  <node id="2627616134" lat="49.6599821" lon="12.9699798">
    <tag k="amenity" v="telephone"/>
    <tag k="operator" v="O2"/>
    <tag k="phone" v="+420374695115"/>
    <tag k="source" v="survey"/>
  </node>
  <node id="3907979033" lat="49.6473202" lon="12.9961585">
    <tag k="amenity" v="telephone"/>
    <tag k="operator" v="O2"/>
    <tag k="phone" v="+420374695174"/>
  </node>
  <node id="3907979766" lat="49.8891215" lon="12.6039781">
    <tag k="amenity" v="telephone"/>
    <tag k="operator" v="O2"/>
    <tag k="phone" v="+420374782462"/>
  </node>
  <node id="3907979047" lat="49.7722283" lon="12.8558500">
    <tag k="amenity" v="telephone"/>
    <tag k="operator" v="O2"/>
    <tag k="phone" v="+420374693203"/>
  </node>
  <node id="2186431757" lat="49.6307539" lon="13.1353066">
    <tag k="amenity" v="telephone"/>
    <tag k="source" v="survey"/>
  </node>
  <node id="1507216403" lat="49.5306751" lon="13.3169739">
    <tag k="amenity" v="telephone"/>
    <tag k="operator" v="O2"/>
    <tag k="payment:telephone_cards" v="yes"/>
    <tag k="source" v="survey"/>
  </node>
  <node id="1551750294" lat="49.5476958" lon="13.3680533">
    <tag k="amenity" v="telephone"/>
    <tag k="operator" v="Telefonica O2"/>
    <tag k="payment:telephone_cards" v="yes"/>
    <tag k="source" v="survey"/>
  </node>
  <node id="5659326813" lat="49.5730101" lon="13.3272049">
    <tag k="amenity" v="telephone"/>
    <tag k="source" v="survey"/>
  </node>
  <node id="2254428056" lat="49.6441369" lon="13.2485140">
    <tag k="amenity" v="telephone"/>
    <tag k="operator" v="O2"/>
    <tag k="phone" v="+420377972842"/>
    <tag k="source" v="survey"/>
  </node>
  <node id="2707631132" lat="49.6551130" lon="13.2918230">
    <tag k="amenity" v="telephone"/>
    <tag k="source" v="survey"/>
  </node>
  <node id="859419873" lat="49.6948924" lon="13.2571922">
    <tag k="amenity" v="telephone"/>
    <tag k="operator" v="O2"/>
  </node>
  <node id="2707571470" lat="49.6860147" lon="13.2942595">
    <tag k="amenity" v="telephone"/>
    <tag k="source" v="survey"/>
  </node>
  <node id="1447890093" lat="49.6948008" lon="13.3513679">
    <tag k="amenity" v="telephone"/>
    <tag k="operator" v="Telefonica O2"/>
    <tag k="payment:coins" v="yes"/>
    <tag k="source" v="survey"/>
  </node>
  <node id="2685853270" lat="49.7171499" lon="13.4070445">
    <tag k="amenity" v="telephone"/>
  </node>
  <node id="3907979045" lat="49.7642636" lon="13.0412749">
    <tag k="amenity" v="telephone"/>
    <tag k="operator" v="O2"/>
    <tag k="phone" v="+420374624583"/>
  </node>
  <node id="3907979049" lat="49.7917175" lon="13.0149211">
    <tag k="amenity" v="telephone"/>
    <tag k="operator" v="O2"/>
    <tag k="phone" v="+420374624500"/>
  </node>
  <node id="2242633791" lat="49.7324994" lon="13.3121374">
    <tag k="amenity" v="telephone"/>
    <tag k="source" v="survey"/>
  </node>
  <node id="2753476494" lat="49.7558519" lon="13.3069106">
    <tag k="amenity" v="telephone"/>
  </node>
  <node id="2510875129" lat="49.7428914" lon="13.3299013">
    <tag k="amenity" v="telephone"/>
    <tag k="source" v="survey"/>
  </node>
  <node id="2475742923" lat="49.7272191" lon="13.3439641">
    <tag k="amenity" v="telephone"/>
    <tag k="source" v="survey"/>
  </node>
  <node id="2620299742" lat="49.7301336" lon="13.3448153">
    <tag k="amenity" v="telephone"/>
    <tag k="source" v="survey"/>
  </node>
  <node id="3595169366" lat="49.7266086" lon="13.3628371">
    <tag k="amenity" v="telephone"/>
    <tag k="source" v="survey"/>
  </node>
  <node id="2260729780" lat="49.7425910" lon="13.3474535">
    <tag k="amenity" v="telephone"/>
    <tag k="source" v="survey"/>
  </node>
  <node id="2804741745" lat="49.7363962" lon="13.3676935">
    <tag k="amenity" v="telephone"/>
    <tag k="source" v="survey"/>
  </node>
  <node id="2260729794" lat="49.7457468" lon="13.3228681">
    <tag k="amenity" v="telephone"/>
    <tag k="source" v="survey"/>
  </node>
  <node id="2260729796" lat="49.7458051" lon="13.3211265">
    <tag k="amenity" v="telephone"/>
    <tag k="source" v="survey"/>
  </node>
  <node id="2264876585" lat="49.7458760" lon="13.3444356">
    <tag k="amenity" v="telephone"/>
    <tag k="source" v="survey"/>
  </node>
  <node id="553035797" lat="49.7461679" lon="13.3635708">
    <tag k="amenity" v="telephone"/>
    <tag k="operator" v="Telefónica O2"/>
  </node>
  <node id="2537197908" lat="49.7480324" lon="13.3639948">
    <tag k="amenity" v="telephone"/>
    <tag k="source" v="survey"/>
  </node>
  <node id="2705879174" lat="49.7499784" lon="13.3665603">
    <tag k="amenity" v="telephone"/>
    <tag k="source" v="survey"/>
  </node>
  <node id="2836808753" lat="49.7474429" lon="13.3656086">
    <tag k="amenity" v="telephone"/>
    <tag k="source" v="survey"/>
  </node>
  <node id="2238630166" lat="49.7578736" lon="13.3604076">
    <tag k="amenity" v="telephone"/>
    <tag k="source" v="survey"/>
  </node>
  <node id="2474916422" lat="49.7616553" lon="13.3536740">
    <tag k="amenity" v="telephone"/>
    <tag k="source" v="survey"/>
  </node>
  <node id="2474943634" lat="49.7675199" lon="13.3635313">
    <tag k="amenity" v="telephone"/>
    <tag k="source" v="survey"/>
  </node>
  <node id="2687643506" lat="49.7707242" lon="13.3669285">
    <tag k="amenity" v="telephone"/>
  </node>
  <node id="4144499422" lat="49.7681102" lon="13.3648937">
    <tag k="amenity" v="telephone"/>
    <tag k="source" v="survey"/>
  </node>
  <node id="3102875469" lat="49.7194174" lon="13.3816338">
    <tag k="amenity" v="telephone"/>
    <tag k="source" v="survey"/>
  </node>
  <node id="2738196660" lat="49.7312959" lon="13.3705506">
    <tag k="amenity" v="telephone"/>
  </node>
  <node id="3102875472" lat="49.7221144" lon="13.3843001">
    <tag k="amenity" v="telephone"/>
  </node>
  <node id="3102875473" lat="49.7266745" lon="13.3870087">
    <tag k="amenity" v="telephone"/>
    <tag k="source" v="survey"/>
  </node>
  <node id="2786147555" lat="49.7362229" lon="13.3780491">
    <tag k="amenity" v="telephone"/>
    <tag k="source" v="survey"/>
  </node>
  <node id="2786147556" lat="49.7373001" lon="13.3795763">
    <tag k="amenity" v="telephone"/>
    <tag k="source" v="survey"/>
  </node>
  <node id="2786147563" lat="49.7427737" lon="13.3754824">
    <tag k="amenity" v="telephone"/>
    <tag k="source" v="survey"/>
  </node>
  <node id="2804741775" lat="49.7421044" lon="13.3721292">
    <tag k="amenity" v="telephone"/>
    <tag k="source" v="survey"/>
  </node>
  <node id="2472759148" lat="49.7431583" lon="13.3783042">
    <tag k="amenity" v="telephone"/>
    <tag k="source" v="survey"/>
  </node>
  <node id="330863019" lat="49.7374828" lon="13.3933165">
    <tag k="amenity" v="telephone"/>
    <tag k="operator" v="Telefónica O2"/>
  </node>
  <node id="2223716929" lat="49.7329500" lon="13.3928000">
    <tag k="amenity" v="telephone"/>
    <tag k="operator" v="O2"/>
    <tag k="payment:coins" v="yes"/>
    <tag k="payment:telephone_cards" v="yes"/>
  </node>
  <node id="4891839352" lat="49.7357967" lon="13.3897328">
    <tag k="amenity" v="telephone"/>
    <tag k="payment:coins" v="yes"/>
    <tag k="source" v="survey"/>
  </node>
  <node id="2167190094" lat="49.7444711" lon="13.3871869">
    <tag k="amenity" v="telephone"/>
    <tag k="operator" v="O2"/>
    <tag k="source" v="survey"/>
  </node>
  <node id="2475742994" lat="49.7439702" lon="13.3846408">
    <tag k="amenity" v="telephone"/>
    <tag k="source" v="survey"/>
  </node>
  <node id="330862880" lat="49.7389079" lon="13.3932409">
    <tag k="amenity" v="telephone"/>
    <tag k="operator" v="Telefónica O2"/>
  </node>
  <node id="4081548587" lat="49.7408923" lon="13.3937220">
    <tag k="amenity" v="telephone"/>
    <tag k="source" v="survey"/>
  </node>
  <node id="2601201055" lat="49.7238362" lon="13.4001022">
    <tag k="amenity" v="telephone"/>
    <tag k="source" v="survey"/>
  </node>
  <node id="2475742914" lat="49.7254737" lon="13.4021171">
    <tag k="amenity" v="telephone"/>
    <tag k="source" v="survey"/>
  </node>
  <node id="2620299760" lat="49.7304307" lon="13.4064825">
    <tag k="amenity" v="telephone"/>
    <tag k="source" v="survey"/>
  </node>
  <node id="2620299884" lat="49.7319039" lon="13.4067794">
    <tag k="amenity" v="telephone"/>
    <tag k="source" v="survey"/>
  </node>
  <node id="2620299618" lat="49.7279558" lon="13.4128108">
    <tag k="amenity" v="telephone"/>
    <tag k="source" v="survey"/>
  </node>
  <node id="2747848435" lat="49.7311019" lon="13.4208890">
    <tag k="amenity" v="telephone"/>
  </node>
  <node id="2475742958" lat="49.7329421" lon="13.4010986">
    <tag k="amenity" v="telephone"/>
    <tag k="source" v="survey"/>
  </node>
  <node id="2475742961" lat="49.7350660" lon="13.3982021">
    <tag k="amenity" v="telephone"/>
    <tag k="source" v="survey"/>
  </node>
  <node id="2475742962" lat="49.7365224" lon="13.3967873">
    <tag k="amenity" v="telephone"/>
    <tag k="source" v="survey"/>
  </node>
  <node id="2661690578" lat="49.7326398" lon="13.3960742">
    <tag k="amenity" v="telephone"/>
    <tag k="source" v="survey"/>
  </node>
  <node id="2620299998" lat="49.7336649" lon="13.4086322">
    <tag k="amenity" v="telephone"/>
    <tag k="source" v="survey"/>
  </node>
  <node id="2638296240" lat="49.7354226" lon="13.4050150">
    <tag k="amenity" v="telephone"/>
    <tag k="source" v="survey"/>
  </node>
  <node id="330861732" lat="49.7391520" lon="13.3961334">
    <tag k="amenity" v="telephone"/>
    <tag k="operator" v="Telefónica O2"/>
  </node>
  <node id="2223716933" lat="49.7427667" lon="13.4126667">
    <tag k="amenity" v="telephone"/>
    <tag k="operator" v="O2"/>
    <tag k="payment:coins" v="yes"/>
    <tag k="payment:telephone_cards" v="yes"/>
  </node>
  <node id="2131345845" lat="49.7475105" lon="13.3733968">
    <tag k="amenity" v="telephone"/>
    <tag k="source" v="survey"/>
  </node>
  <node id="2472759268" lat="49.7463628" lon="13.3737040">
    <tag k="amenity" v="telephone"/>
    <tag k="source" v="survey"/>
  </node>
  <node id="2472759293" lat="49.7484888" lon="13.3756052">
    <tag k="amenity" v="telephone"/>
    <tag k="source" v="survey"/>
  </node>
  <node id="2472759260" lat="49.7462990" lon="13.3796760">
    <tag k="amenity" v="telephone"/>
    <tag k="source" v="survey"/>
  </node>
  <node id="2475743007" lat="49.7466193" lon="13.3772397">
    <tag k="amenity" v="telephone"/>
    <tag k="source" v="survey"/>
  </node>
  <node id="2642791722" lat="49.7543194" lon="13.3771423">
    <tag k="amenity" v="telephone"/>
    <tag k="source" v="survey"/>
  </node>
  <node id="2687643488" lat="49.7674188" lon="13.3719756">
    <tag k="amenity" v="telephone"/>
  </node>
  <node id="2821138417" lat="49.7691466" lon="13.3737970">
    <tag k="amenity" v="telephone"/>
    <tag k="source" v="survey"/>
  </node>
  <node id="2821138419" lat="49.7703932" lon="13.3733142">
    <tag k="amenity" v="telephone"/>
    <tag k="source" v="survey"/>
  </node>
  <node id="2456894876" lat="49.7566891" lon="13.4041613">
    <tag k="amenity" v="telephone"/>
    <tag k="source" v="survey"/>
  </node>
  <node id="2804828989" lat="49.7483331" lon="13.4087189">
    <tag k="amenity" v="telephone"/>
    <tag k="source" v="survey"/>
  </node>
  <node id="2687626796" lat="49.7490716" lon="13.4188814">
    <tag k="amenity" v="telephone"/>
  </node>
  <node id="2687626822" lat="49.7570019" lon="13.4210203">
    <tag k="amenity" v="telephone"/>
  </node>
  <node id="2804830115" lat="49.7546700" lon="13.4155653">
    <tag k="amenity" v="telephone"/>
    <tag k="source" v="survey"/>
  </node>
  <node id="2241352490" lat="49.7775659" lon="13.3552986">
    <tag k="amenity" v="telephone"/>
    <tag k="source" v="survey"/>
  </node>
  <node id="2660003560" lat="49.7764186" lon="13.3637067">
    <tag k="amenity" v="telephone"/>
    <tag k="source" v="survey"/>
  </node>
  <node id="2660003605" lat="49.7770254" lon="13.3632014">
    <tag k="amenity" v="telephone"/>
    <tag k="source" v="survey"/>
  </node>
  <node id="2660003661" lat="49.7779617" lon="13.3675860">
    <tag k="amenity" v="telephone"/>
    <tag k="source" v="survey"/>
  </node>
  <node id="2660003794" lat="49.7800073" lon="13.3690094">
    <tag k="amenity" v="telephone"/>
    <tag k="source" v="survey"/>
  </node>
  <node id="2660003833" lat="49.7804420" lon="13.3658261">
    <tag k="amenity" v="telephone"/>
    <tag k="source" v="survey"/>
  </node>
  <node id="2821138466" lat="49.7752998" lon="13.3728512">
    <tag k="amenity" v="telephone"/>
    <tag k="source" v="survey"/>
  </node>
  <node id="2283381292" lat="49.7801427" lon="13.3730682">
    <tag k="amenity" v="telephone"/>
    <tag k="source" v="survey"/>
  </node>
  <node id="2293006181" lat="49.7821133" lon="13.3724228">
    <tag k="amenity" v="telephone"/>
    <tag k="source" v="survey"/>
  </node>
  <node id="2237283944" lat="49.7829924" lon="13.3829491">
    <tag k="amenity" v="telephone"/>
    <tag k="source" v="survey"/>
  </node>
  <node id="3907979760" lat="49.8618697" lon="13.2371727">
    <tag k="amenity" v="telephone"/>
    <tag k="operator" v="O2"/>
    <tag k="phone" v="+420377915333"/>
  </node>
  <node id="3907864977" lat="50.0836330" lon="12.5218053">
    <tag k="amenity" v="telephone"/>
    <tag k="operator" v="O2"/>
    <tag k="phone" v="+420354595138"/>
  </node>
  <node id="3907864999" lat="50.1962128" lon="12.3715323">
    <tag k="amenity" v="telephone"/>
    <tag k="operator" v="O2"/>
    <tag k="phone" v="+420354596099"/>
  </node>
  <node id="3907865013" lat="50.2552133" lon="12.2015287">
    <tag k="amenity" v="telephone"/>
    <tag k="operator" v="O2"/>
    <tag k="phone" v="+420354527340"/>
  </node>
  <node id="3907979773" lat="49.9529253" lon="12.7798921">
    <tag k="amenity" v="telephone"/>
    <tag k="operator" v="O2"/>
    <tag k="phone" v="+420354627055"/>
  </node>
  <node id="3907864976" lat="50.0694961" lon="12.8629323">
    <tag k="amenity" v="telephone"/>
    <tag k="operator" v="O2"/>
    <tag k="phone" v="+420353999628"/>
  </node>
  <node id="3907865015" lat="50.2766594" lon="12.6971611">
    <tag k="amenity" v="telephone"/>
    <tag k="operator" v="O2"/>
    <tag k="phone" v="+420352675733"/>
  </node>
  <node id="3907864987" lat="50.1487083" lon="12.8523070">
    <tag k="amenity" v="telephone"/>
    <tag k="operator" v="O2"/>
    <tag k="phone" v="+420353972392"/>
  </node>
  <node id="3678818824" lat="49.0238182" lon="13.4985395">
    <tag k="amenity" v="telephone"/>
  </node>
  <node id="4672428994" lat="49.0870995" lon="13.4811403">
    <tag k="amenity" v="telephone"/>
  </node>
  <node id="5511489321" lat="49.0541454" lon="13.5640429">
    <tag k="amenity" v="telephone"/>
  </node>
  <node id="287040827" lat="49.0677970" lon="13.6249951">
    <tag k="amenity" v="telephone"/>
    <tag k="operator" v="Telefónica O2"/>
  </node>
  <node id="3678958667" lat="48.9899745" lon="13.6597100">
    <tag k="amenity" v="telephone"/>
    <tag k="phone" v="+420 388434101"/>
  </node>
  <node id="4061923654" lat="49.0387982" lon="13.6460118">
    <tag k="amenity" v="telephone"/>
  </node>
  <node id="3922206154" lat="48.7379156" lon="14.1077686">
    <tag k="amenity" v="telephone"/>
    <tag k="operator" v="O2"/>
    <tag k="phone" v="+420380744220"/>
  </node>
  <node id="3880890783" lat="49.0126087" lon="14.0018485">
    <tag k="amenity" v="telephone"/>
  </node>
  <node id="7476785515" lat="49.0100921" lon="14.2336328">
    <tag k="amenity" v="telephone"/>
    <tag k="covered" v="yes"/>
    <tag k="currency:EUR" v="yes"/>
    <tag k="fee" v="yes"/>
    <tag k="indoor" v="no"/>
    <tag k="operator" v="O2"/>
    <tag k="payment:coins" v="yes"/>
    <tag k="phone" v="+420388324943"/>
    <tag k="sms" v="yes"/>
    <tag k="source:date" v="2020-05-03"/>
    <tag k="video" v="no"/>
    <tag k="wheelchair" v="yes"/>
  </node>
  <node id="3922206122" lat="48.6549525" lon="14.3669603">
    <tag k="amenity" v="telephone"/>
    <tag k="operator" v="O2"/>
    <tag k="phone" v="+420380749848"/>
  </node>
  <node id="3922206147" lat="48.7009287" lon="14.3889532">
    <tag k="amenity" v="telephone"/>
    <tag k="operator" v="O2"/>
    <tag k="phone" v="+420380327165"/>
  </node>
  <node id="3922206678" lat="48.7748550" lon="14.4674192">
    <tag k="amenity" v="telephone"/>
    <tag k="operator" v="O2"/>
    <tag k="phone" v="+420380321156"/>
  </node>
  <node id="7099374763" lat="48.8048583" lon="14.3118899">
    <tag k="amenity" v="telephone"/>
  </node>
  <node id="7133447528" lat="48.8238651" lon="14.3293417">
    <tag k="amenity" v="telephone"/>
    <tag k="covered" v="yes"/>
    <tag k="indoor" v="no"/>
    <tag k="level" v="0"/>
    <tag k="operator" v="O2"/>
    <tag k="wheelchair" v="yes"/>
  </node>
  <node id="4268043939" lat="48.8346260" lon="14.4062266">
    <tag k="amenity" v="telephone"/>
    <tag k="operator" v="O2 a.s."/>
    <tag k="payment:coins" v="yes"/>
    <tag k="payment:telephone_cards" v="yes"/>
  </node>
  <node id="3922206687" lat="48.8543353" lon="14.4106046">
    <tag k="amenity" v="telephone"/>
    <tag k="operator" v="O2"/>
    <tag k="phone" v="+420380743792"/>
  </node>
  <node id="3922206149" lat="48.7290892" lon="14.6255831">
    <tag k="amenity" v="telephone"/>
    <tag k="operator" v="O2"/>
    <tag k="phone" v="+420380322260"/>
  </node>
  <node id="4885340128" lat="48.7796604" lon="14.6706624">
    <tag k="amenity" v="telephone"/>
    <tag k="operator" v="O2"/>
    <tag k="payment:coins" v="yes"/>
    <tag k="payment:telephone_cards" v="yes"/>
  </node>
  <node id="2372703065" lat="48.9047352" lon="14.3045872">
    <tag k="amenity" v="telephone"/>
  </node>
  <node id="2372664647" lat="48.9477071" lon="14.3339704">
    <tag k="amenity" v="telephone"/>
    <tag k="covered" v="yes"/>
    <tag k="fee" v="yes"/>
    <tag k="indoor" v="no"/>
    <tag k="payment:telephone_cards" v="yes"/>
    <tag k="phone" v="+420387992192"/>
    <tag k="sms" v="yes"/>
    <tag k="source:date" v="2020-05-03"/>
    <tag k="video" v="no"/>
    <tag k="wheelchair" v="yes"/>
  </node>
  <node id="2372664658" lat="48.9571294" lon="14.3313599">
    <tag k="amenity" v="telephone"/>
    <tag k="covered" v="yes"/>
    <tag k="fee" v="yes"/>
    <tag k="indoor" v="no"/>
    <tag k="payment:telephone_cards" v="yes"/>
    <tag k="phone" v="+420387222489"/>
    <tag k="sms" v="yes"/>
    <tag k="source:date" v="2020-05-03"/>
    <tag k="video" v="no"/>
    <tag k="wheelchair" v="yes"/>
  </node>
  <node id="2371990974" lat="48.9505797" lon="14.3523594">
    <tag k="amenity" v="telephone"/>
  </node>
  <node id="4414490937" lat="48.9910571" lon="14.2674566">
    <tag k="amenity" v="telephone"/>
    <tag k="payment:coins" v="yes"/>
  </node>
  <node id="6269987817" lat="49.0118037" lon="14.2658588">
    <tag k="amenity" v="telephone"/>
    <tag k="covered" v="yes"/>
    <tag k="fee" v="yes"/>
    <tag k="indoor" v="no"/>
    <tag k="operator" v="O2"/>
    <tag k="payment:telephone_cards" v="yes"/>
    <tag k="phone" v="+420387982012"/>
    <tag k="sms" v="yes"/>
    <tag k="source:date" v="2020-05-03"/>
    <tag k="video" v="no"/>
    <tag k="wheelchair" v="yes"/>
  </node>
  <node id="4705698671" lat="49.0031977" lon="14.3349142">
    <tag k="amenity" v="telephone"/>
    <tag k="source" v="survey"/>
  </node>
  <node id="4705498361" lat="49.0682204" lon="14.2637173">
    <tag k="amenity" v="telephone"/>
  </node>
  <node id="3919564152" lat="49.0511584" lon="14.4396146">
    <tag k="amenity" v="telephone"/>
  </node>
  <node id="7476408807" lat="48.9113581" lon="14.5039930">
    <tag k="amenity" v="telephone"/>
    <tag k="covered" v="yes"/>
    <tag k="fee" v="yes"/>
    <tag k="indoor" v="no"/>
    <tag k="lit" v="yes"/>
    <tag k="operator" v="O2"/>
    <tag k="payment:telephone_cards" v="yes"/>
    <tag k="phone" v="+420387988596"/>
    <tag k="sms" v="yes"/>
    <tag k="source:date" v="2020-05-03"/>
    <tag k="video" v="no"/>
    <tag k="wheelchair" v="yes"/>
  </node>
  <node id="7476785514" lat="48.8807470" lon="14.6002477">
    <tag k="amenity" v="telephone"/>
    <tag k="covered" v="yes"/>
    <tag k="fee" v="yes"/>
    <tag k="indoor" v="no"/>
    <tag k="operator" v="O2"/>
    <tag k="payment:telephone_cards" v="yes"/>
    <tag k="phone" v="+420386321490"/>
    <tag k="sms" v="yes"/>
    <tag k="source:date" v="2020-05-03"/>
    <tag k="video" v="no"/>
    <tag k="wheelchair" v="yes"/>
  </node>
  <node id="913517430" lat="48.9335270" lon="14.6196331">
    <tag k="amenity" v="telephone"/>
    <tag k="operator" v="Telefónica O2"/>
    <tag k="payment:coins" v="yes"/>
  </node>
  <node id="913908932" lat="48.9326236" lon="14.6221288">
    <tag k="amenity" v="telephone"/>
    <tag k="operator" v="Telefónica O2"/>
  </node>
  <node id="2508331895" lat="48.7610467" lon="14.7337385">
    <tag k="amenity" v="telephone"/>
    <tag k="operator" v="O2"/>
    <tag k="payment:coins" v="yes"/>
    <tag k="payment:credit_cards" v="no"/>
    <tag k="payment:debit_cards" v="no"/>
    <tag k="payment:electronic_purses" v="no"/>
    <tag k="payment:notes" v="no"/>
    <tag k="payment:telephone_cards" v="no"/>
    <tag k="phone" v="+420386327109"/>
    <tag k="source" v="survey"/>
  </node>
  <node id="4361261390" lat="48.8787405" lon="14.9335191">
    <tag k="amenity" v="telephone"/>
    <tag k="operator" v="O2"/>
  </node>
  <node id="3935984312" lat="48.9698718" lon="14.6842144">
    <tag k="amenity" v="telephone"/>
  </node>
  <node id="1305882672" lat="49.0072728" lon="14.7578784">
    <tag k="amenity" v="telephone"/>
    <tag k="operator" v="Telefónica O2"/>
  </node>
  <node id="2404901872" lat="49.0035711" lon="14.7642851">
    <tag k="amenity" v="telephone"/>
  </node>
  <node id="1305612397" lat="49.0043954" lon="14.7727391">
    <tag k="amenity" v="telephone"/>
    <tag k="operator" v="Telefónica O2"/>
  </node>
  <node id="1306024234" lat="49.0817397" lon="14.7182013">
    <tag k="amenity" v="telephone"/>
    <tag k="operator" v="O2"/>
    <tag k="phone" v="+420384792489"/>
    <tag k="source" v="knowledge"/>
  </node>
  <node id="2725150210" lat="49.0617990" lon="14.7551268">
    <tag k="amenity" v="telephone"/>
    <tag k="operator" v="O2"/>
    <tag k="phone" v="+420 384 792 500"/>
    <tag k="source" v="survey"/>
  </node>
  <node id="4308187037" lat="49.0513472" lon="14.9374899">
    <tag k="amenity" v="telephone"/>
    <tag k="covered" v="yes"/>
    <tag k="operator" v="O2"/>
    <tag k="payment:coins" v="no"/>
    <tag k="payment:telephone_cards" v="yes"/>
    <tag k="phone" v="+420 384 389 488"/>
  </node>
  <node id="3922630584" lat="49.0692069" lon="14.9069905">
    <tag k="amenity" v="telephone"/>
    <tag k="operator" v="O2"/>
    <tag k="phone" v="+420384389180"/>
  </node>
  <node id="3922630585" lat="49.0743139" lon="14.9700404">
    <tag k="amenity" v="telephone"/>
    <tag k="operator" v="O2"/>
    <tag k="phone" v="+420384380178"/>
  </node>
  <node id="7011603859" lat="49.1244387" lon="13.6194406">
    <tag k="amenity" v="telephone"/>
    <tag k="covered" v="booth"/>
  </node>
  <node id="7007834836" lat="49.1731643" lon="13.6123690">
    <tag k="amenity" v="telephone"/>
    <tag k="covered" v="booth"/>
  </node>
  <node id="3252272827" lat="49.2315388" lon="13.5201962">
    <tag k="amenity" v="telephone"/>
    <tag k="operator" v="O2"/>
    <tag k="payment:coins" v="yes"/>
  </node>
  <node id="2666736245" lat="49.2378617" lon="13.5217785">
    <tag k="amenity" v="telephone"/>
    <tag k="operator" v="O2"/>
    <tag k="payment:coins" v="yes"/>
  </node>
  <node id="3710401226" lat="49.2687572" lon="13.4344097">
    <tag k="amenity" v="telephone"/>
    <tag k="phone" v="376594901"/>
  </node>
  <node id="6986783277" lat="49.2749694" lon="13.4565756">
    <tag k="amenity" v="telephone"/>
    <tag k="covered" v="booth"/>
  </node>
  <node id="7020275274" lat="49.2835320" lon="13.5850279">
    <tag k="amenity" v="telephone"/>
    <tag k="covered" v="booth"/>
  </node>
  <node id="7448469955" lat="49.1412765" lon="13.7159983">
    <tag k="amenity" v="telephone"/>
    <tag k="covered" v="booth"/>
    <tag k="operator" v="O2"/>
  </node>
  <node id="7008944719" lat="49.2892124" lon="13.6744219">
    <tag k="amenity" v="telephone"/>
    <tag k="covered" v="booth"/>
  </node>
  <node id="7003991513" lat="49.2486833" lon="13.7065628">
    <tag k="amenity" v="telephone"/>
    <tag k="covered" v="booth"/>
  </node>
  <node id="7008625858" lat="49.2711640" lon="13.7176283">
    <tag k="amenity" v="telephone"/>
    <tag k="covered" v="booth"/>
  </node>
  <node id="7026363190" lat="49.2686711" lon="13.7633083">
    <tag k="amenity" v="telephone"/>
    <tag k="covered" v="booth"/>
  </node>
  <node id="5366734609" lat="49.3366186" lon="13.4908756">
    <tag k="amenity" v="telephone"/>
    <tag k="operator" v="O2"/>
    <tag k="phone" v="+420376396901"/>
  </node>
  <node id="3216023008" lat="49.3314551" lon="13.5468752">
    <tag k="amenity" v="telephone"/>
    <tag k="source" v="survey"/>
  </node>
  <node id="7033747361" lat="49.3229636" lon="13.5967211">
    <tag k="amenity" v="telephone"/>
    <tag k="covered" v="booth"/>
  </node>
  <node id="1557669194" lat="49.3472187" lon="13.6178420">
    <tag k="amenity" v="telephone"/>
    <tag k="source" v="survey;uhul:ortofoto"/>
  </node>
  <node id="1406819014" lat="49.5016244" lon="13.5763643">
    <tag k="amenity" v="telephone"/>
    <tag k="operator" v="O2"/>
    <tag k="phone" v="+420 371 592 691"/>
    <tag k="source" v="survey"/>
  </node>
  <node id="7039190501" lat="49.3639118" lon="13.7027594">
    <tag k="amenity" v="telephone"/>
    <tag k="covered" v="booth"/>
  </node>
  <node id="5941440356" lat="49.4371727" lon="13.8098265">
    <tag k="amenity" v="telephone"/>
    <tag k="covered" v="booth"/>
  </node>
  <node id="5503549460" lat="49.0919016" lon="14.2245855">
    <tag k="amenity" v="telephone"/>
  </node>
  <node id="5352253378" lat="49.1536486" lon="14.2299248">
    <tag k="amenity" v="telephone"/>
    <tag k="operator" v="O2"/>
    <tag k="phone" v="+420383381109"/>
  </node>
  <node id="3966768552" lat="49.4300409" lon="14.0373716">
    <tag k="amenity" v="telephone"/>
    <tag k="operator" v="O2"/>
    <tag k="phone" v="+420382229390"/>
  </node>
  <node id="5514480224" lat="49.3644891" lon="14.0541932">
    <tag k="amenity" v="telephone"/>
    <tag k="covered" v="yes"/>
  </node>
  <node id="2390056334" lat="49.5210025" lon="13.5080496">
    <tag k="amenity" v="telephone"/>
    <tag k="source" v="survey"/>
  </node>
  <node id="1837449291" lat="49.5842639" lon="13.4700204">
    <tag k="amenity" v="telephone"/>
  </node>
  <node id="1406770465" lat="49.5497055" lon="13.5734555">
    <tag k="amenity" v="telephone"/>
    <tag k="operator" v="O2"/>
    <tag k="phone" v="+420 371 522 964"/>
    <tag k="source" v="survey"/>
  </node>
  <node id="3921306513" lat="49.6399353" lon="13.5223998">
    <tag k="amenity" v="telephone"/>
    <tag k="operator" v="O2"/>
    <tag k="phone" v="+420377891102"/>
  </node>
  <node id="2169659172" lat="49.6306073" lon="13.5277134">
    <tag k="amenity" v="telephone"/>
    <tag k="source" v="survey"/>
  </node>
  <node id="2687626801" lat="49.7534716" lon="13.4228782">
    <tag k="amenity" v="telephone"/>
  </node>
  <node id="2687626832" lat="49.7584343" lon="13.4237883">
    <tag k="amenity" v="telephone"/>
    <tag k="source" v="survey"/>
  </node>
  <node id="325200485" lat="49.8764466" lon="13.5752807">
    <tag k="amenity" v="telephone"/>
    <tag k="operator" v="Telefónica O2"/>
    <tag k="payment:coins" v="yes"/>
  </node>
  <node id="4796715278" lat="49.5380426" lon="13.9832899">
    <tag k="amenity" v="telephone"/>
  </node>
  <node id="7359282801" lat="49.7999150" lon="13.9460827">
    <tag k="amenity" v="telephone"/>
    <tag k="operator" v="O2"/>
    <tag k="phone" v="+420 318 692 113"/>
  </node>
  <node id="2649346624" lat="49.2224933" lon="14.4205292">
    <tag k="amenity" v="telephone"/>
  </node>
  <node id="4218887366" lat="49.2237121" lon="14.4195010">
    <tag k="amenity" v="telephone"/>
    <tag k="payment:coins" v="yes"/>
    <tag k="payment:telephone_cards" v="yes"/>
  </node>
  <node id="504484079" lat="49.2957122" lon="14.3879366">
    <tag k="amenity" v="telephone"/>
    <tag k="operator" v="Telefónica O2"/>
  </node>
  <node id="7565000292" lat="49.2955663" lon="14.4681438">
    <tag k="amenity" v="telephone"/>
  </node>
  <node id="5573459262" lat="49.1036859" lon="14.6176107">
    <tag k="amenity" v="telephone"/>
  </node>
  <node id="4797223103" lat="49.2503012" lon="14.5941695">
    <tag k="amenity" v="telephone"/>
  </node>
  <node id="3904064143" lat="49.3933358" lon="14.3234053">
    <tag k="amenity" v="telephone"/>
    <tag k="operator" v="O2"/>
    <tag k="phone" v="+420382589145"/>
  </node>
  <node id="3904063927" lat="49.4025541" lon="14.3390258">
    <tag k="amenity" v="telephone"/>
    <tag k="operator" v="O2"/>
    <tag k="phone" v="+420382589127"/>
  </node>
  <node id="1665027853" lat="49.3430779" lon="14.3920428">
    <tag k="amenity" v="telephone"/>
  </node>
  <node id="5352253374" lat="49.5026865" lon="14.4793414">
    <tag k="amenity" v="telephone"/>
    <tag k="operator" v="O2"/>
    <tag k="phone" v="+420381272125"/>
  </node>
  <node id="3788899982" lat="49.4140971" lon="14.6755636">
    <tag k="amenity" v="telephone"/>
    <tag k="source" v="local knowledge"/>
  </node>
  <node id="2469059926" lat="49.1386795" lon="15.0032141">
    <tag k="amenity" v="telephone"/>
    <tag k="operator" v="Telefonica O2"/>
    <tag k="payment:coins" v="yes"/>
    <tag k="payment:notes" v="no"/>
    <tag k="payment:telephone_cards" v="yes"/>
  </node>
  <node id="1277982300" lat="49.1416861" lon="15.0959080">
    <tag k="amenity" v="telephone"/>
    <tag k="operator" v="Telefónica O2"/>
    <tag k="payment:telephone_cards" v="yes"/>
  </node>
  <node id="1132527492" lat="49.1440862" lon="15.0030191">
    <tag k="amenity" v="telephone"/>
    <tag k="operator" v="Telefónica O2"/>
  </node>
  <node id="3922630606" lat="49.1712461" lon="15.0572117">
    <tag k="amenity" v="telephone"/>
    <tag k="operator" v="O2"/>
    <tag k="phone" v="+420384396481"/>
  </node>
  <node id="3922631013" lat="49.1896786" lon="15.0662412">
    <tag k="amenity" v="telephone"/>
    <tag k="operator" v="O2"/>
    <tag k="phone" v="+420384396397"/>
  </node>
  <node id="2471913165" lat="49.2654094" lon="14.9245014">
    <tag k="amenity" v="telephone"/>
    <tag k="operator" v="O2"/>
    <tag k="payment:coins" v="yes"/>
    <tag k="payment:telephone_cards" v="yes"/>
    <tag k="phone" v="+420384384298"/>
  </node>
  <node id="1316677233" lat="49.3756471" lon="14.6942688">
    <tag k="amenity" v="telephone"/>
    <tag k="operator" v="Telefónica O2"/>
  </node>
  <node id="3784501148" lat="49.3770321" lon="14.7001197">
    <tag k="amenity" v="telephone"/>
  </node>
  <node id="2060199755" lat="49.3905734" lon="14.6823798">
    <tag k="amenity" v="telephone"/>
  </node>
  <node id="5717958321" lat="49.3908284" lon="14.6853648">
    <tag k="amenity" v="telephone"/>
  </node>
  <node id="3922206879" lat="49.3099411" lon="14.9482820">
    <tag k="amenity" v="telephone"/>
    <tag k="operator" v="O2"/>
    <tag k="phone" v="+420565436803"/>
  </node>
  <node id="2552438358" lat="49.3260256" lon="14.9700463">
    <tag k="amenity" v="telephone"/>
    <tag k="operator" v="O2"/>
    <tag k="phone" v="+420 565 492 435"/>
    <tag k="source" v="survey"/>
  </node>
  <node id="2541284815" lat="49.3060001" lon="15.0392344">
    <tag k="amenity" v="telephone"/>
    <tag k="operator" v="O2"/>
    <tag k="payment:coins" v="yes"/>
    <tag k="phone" v="+420 565 432 864"/>
    <tag k="source" v="survey"/>
  </node>
  <node id="2552275968" lat="49.2999180" lon="15.0762320">
    <tag k="amenity" v="telephone"/>
    <tag k="operator" v="O2"/>
    <tag k="phone" v="+420 565 433 241"/>
    <tag k="source" v="survey"/>
  </node>
  <node id="2552298143" lat="49.3025104" lon="15.0781268">
    <tag k="amenity" v="telephone"/>
    <tag k="operator" v="O2"/>
    <tag k="phone" v="+420 565 433 244"/>
    <tag k="source" v="survey"/>
  </node>
  <node id="3481188878" lat="49.4162972" lon="15.0421202">
    <tag k="amenity" v="telephone"/>
    <tag k="operator" v="O2"/>
  </node>
  <node id="1244127532" lat="49.5099986" lon="14.6583769">
    <tag k="amenity" v="telephone"/>
    <tag k="operator" v="Telefónica O2"/>
  </node>
  <node id="302685076" lat="49.5652570" lon="14.8653516">
    <tag k="amenity" v="telephone"/>
    <tag k="operator" v="Telefónica O2"/>
  </node>
  <node id="7286051858" lat="49.8715342" lon="14.9154210">
    <tag k="amenity" v="telephone"/>
    <tag k="operator" v="O2"/>
    <tag k="phone" v="+420 327 321 846"/>
  </node>
  <node id="2615311323" lat="48.9678347" lon="15.5883671">
    <tag k="amenity" v="telephone"/>
  </node>
  <node id="7741415227" lat="48.9320285" lon="15.6879163">
    <tag k="amenity" v="telephone"/>
  </node>
  <node id="7744184143" lat="48.9408681" lon="15.6898882">
    <tag k="amenity" v="telephone"/>
  </node>
  <node id="2443575650" lat="48.9373481" lon="15.7293253">
    <tag k="amenity" v="telephone"/>
    <tag k="operator" v="O2"/>
  </node>
  <node id="3007301995" lat="49.1340746" lon="15.4171924">
    <tag k="amenity" v="telephone"/>
  </node>
  <node id="3007302031" lat="49.1480107" lon="15.4289865">
    <tag k="amenity" v="telephone"/>
    <tag k="payment:telephone_cards" v="yes"/>
  </node>
  <node id="1126883608" lat="49.3981340" lon="15.2440838">
    <tag k="amenity" v="telephone"/>
    <tag k="operator" v="O2"/>
  </node>
  <node id="1764496242" lat="49.3761611" lon="15.4903268">
    <tag k="amenity" v="telephone"/>
    <tag k="source" v="survey"/>
  </node>
  <node id="5584125084" lat="49.2000301" lon="15.5311091">
    <tag k="amenity" v="telephone"/>
    <tag k="indoor" v="yes"/>
  </node>
  <node id="5628307331" lat="49.2139667" lon="15.6120143">
    <tag k="amenity" v="telephone"/>
  </node>
  <node id="1493479602" lat="49.4598441" lon="15.7053960">
    <tag k="amenity" v="telephone"/>
    <tag k="source" v="survey"/>
  </node>
  <node id="2000451815" lat="49.7707442" lon="15.2710913">
    <tag k="amenity" v="telephone"/>
  </node>
  <node id="8668096081" lat="49.7255872" lon="15.3237404">
    <tag k="amenity" v="telephone"/>
    <tag k="covered" v="booth"/>
  </node>
  <node id="6124089992" lat="49.5495422" lon="15.7652675">
    <tag k="amenity" v="telephone"/>
    <tag k="operator" v="O2"/>
  </node>
  <node id="6586956023" lat="49.8601268" lon="15.5283454">
    <tag k="amenity" v="telephone"/>
  </node>
  <node id="2609307354" lat="49.8947390" lon="15.5648409">
    <tag k="amenity" v="telephone"/>
    <tag k="operator" v="O2"/>
    <tag k="source" v="gps"/>
  </node>
  <node id="6550843668" lat="49.1097465" lon="16.2199737">
    <tag k="amenity" v="telephone"/>
    <tag k="covered" v="booth"/>
  </node>
  <node id="4266324591" lat="48.9800273" lon="17.8800912">
    <tag k="amenity" v="telephone"/>
    <tag k="phone" v="572696202"/>
  </node>
  <node id="4427603051" lat="49.6694684" lon="17.4391066">
    <tag k="amenity" v="telephone"/>
    <tag k="operator" v="O2"/>
  </node>
  <node id="3977652286" lat="49.7091164" lon="17.7658825">
    <tag k="amenity" v="telephone"/>
    <tag k="operator" v="O2"/>
    <tag k="phone" v="+420556748292"/>
  </node>
  <node id="5646155960" lat="49.8175948" lon="17.6942486">
    <tag k="amenity" v="telephone"/>
  </node>
  <node id="4210732135" lat="49.9688706" lon="14.1335899">
    <tag k="amenity" v="telephone"/>
  </node>
  <node id="2031572603" lat="50.1626564" lon="14.2577831">
    <tag k="amenity" v="telephone"/>
  </node>
  <node id="3903503897" lat="50.6350306" lon="13.5571722">
    <tag k="amenity" v="telephone"/>
    <tag k="operator" v="O2"/>
    <tag k="phone" v="+420476116017"/>
  </node>
  <node id="3903503913" lat="50.7190603" lon="13.6879469">
    <tag k="amenity" v="telephone"/>
    <tag k="operator" v="O2"/>
    <tag k="phone" v="+420417878060"/>
  </node>
  <node id="3903503877" lat="50.5850836" lon="13.9651090">
    <tag k="amenity" v="telephone"/>
    <tag k="operator" v="O2"/>
    <tag k="phone" v="+420417872023"/>
  </node>
  <node id="957141331" lat="50.5579842" lon="14.0780354">
    <tag k="amenity" v="telephone"/>
    <tag k="operator" v="Telefónica O2"/>
  </node>
  <node id="3903503889" lat="50.6146757" lon="14.1337289">
    <tag k="amenity" v="telephone"/>
    <tag k="operator" v="O2"/>
    <tag k="phone" v="+420472743042"/>
  </node>
  <node id="3903503901" lat="50.6859115" lon="14.0915648">
    <tag k="amenity" v="telephone"/>
    <tag k="operator" v="O2"/>
    <tag k="phone" v="+420475507045"/>
  </node>
  <node id="390717115" lat="50.0287091" lon="14.3552473">
    <tag k="amenity" v="telephone"/>
    <tag k="operator" v="Telefónica O2"/>
  </node>
  <node id="2146396344" lat="50.0054282" lon="14.4051079">
    <tag k="amenity" v="telephone"/>
  </node>
  <node id="1504203326" lat="50.0085708" lon="14.3835663">
    <tag k="amenity" v="telephone"/>
  </node>
  <node id="1504210096" lat="50.0122858" lon="14.3808115">
    <tag k="amenity" v="telephone"/>
  </node>
  <node id="315996933" lat="50.0226318" lon="14.4041951">
    <tag k="amenity" v="telephone"/>
    <tag k="operator" v="Telefónica O2"/>
  </node>
  <node id="323112190" lat="49.9937267" lon="14.4674952">
    <tag k="amenity" v="telephone"/>
    <tag k="note" v="dvě telefonní budky vedle sebe"/>
    <tag k="operator" v="Telefónica O2"/>
  </node>
  <node id="330437374" lat="49.9909907" lon="14.4688113">
    <tag k="amenity" v="telephone"/>
    <tag k="operator" v="Telefónica O2"/>
  </node>
  <node id="1780057762" lat="50.0245052" lon="14.4265223">
    <tag k="amenity" v="telephone"/>
    <tag k="source" v="survey"/>
  </node>
  <node id="854483173" lat="50.0174253" lon="14.4445296">
    <tag k="amenity" v="telephone"/>
    <tag k="operator" v="Telefónica O2"/>
    <tag k="payment:telephone_cards" v="yes"/>
  </node>
  <node id="527674700" lat="50.0267674" lon="14.4467625">
    <tag k="amenity" v="telephone"/>
    <tag k="note" v="dvě telefonní budky vedle sebe"/>
    <tag k="operator" v="Telefónica O2"/>
  </node>
  <node id="343688188" lat="50.0286920" lon="14.4540425">
    <tag k="amenity" v="telephone"/>
    <tag k="operator" v="Telefónica O2"/>
  </node>
  <node id="346199602" lat="50.0822432" lon="14.3105895">
    <tag k="amenity" v="telephone"/>
    <tag k="operator" v="Telefónica O2"/>
    <tag k="payment:coins" v="yes"/>
    <tag k="payment:telephone_cards" v="yes"/>
  </node>
  <node id="1769022645" lat="50.0572832" lon="14.3332355">
    <tag k="amenity" v="telephone"/>
  </node>
  <node id="1097935718" lat="50.0540205" lon="14.3437668">
    <tag k="amenity" v="telephone"/>
    <tag k="operator" v="Telefónica O2"/>
  </node>
  <node id="929585612" lat="50.0753041" lon="14.3249291">
    <tag k="amenity" v="telephone"/>
    <tag k="operator" v="Telefónica O2"/>
  </node>
  <node id="1684802055" lat="50.0677389" lon="14.3417538">
    <tag k="amenity" v="telephone"/>
  </node>
  <node id="360638972" lat="50.0821652" lon="14.3608526">
    <tag k="amenity" v="telephone"/>
    <tag k="operator" v="Telefónica O2"/>
    <tag k="source" v="norc.cz"/>
  </node>
  <node id="360910069" lat="50.0860619" lon="14.3239468">
    <tag k="amenity" v="telephone"/>
    <tag k="operator" v="Telefónica O2"/>
    <tag k="source" v="norc.cz"/>
  </node>
  <node id="346198661" lat="50.0927850" lon="14.3244504">
    <tag k="amenity" v="telephone"/>
    <tag k="operator" v="O2"/>
    <tag k="source" v="uhul:ortofoto"/>
  </node>
  <node id="4554507362" lat="50.0935420" lon="14.3502012">
    <tag k="amenity" v="telephone"/>
  </node>
  <node id="2575867598" lat="50.0897536" lon="14.3632809">
    <tag k="amenity" v="telephone"/>
  </node>
  <node id="307873205" lat="50.0987337" lon="14.3639206">
    <tag k="amenity" v="telephone"/>
    <tag k="operator" v="Telefónica O2"/>
  </node>
  <node id="320804618" lat="50.0974718" lon="14.3615513">
    <tag k="amenity" v="telephone"/>
    <tag k="operator" v="Telefónica O2"/>
  </node>
  <node id="473209498" lat="50.0965151" lon="14.3647284">
    <tag k="amenity" v="telephone"/>
    <tag k="operator" v="Telefónica O2"/>
  </node>
  <node id="347088073" lat="50.0441352" lon="14.4013329">
    <tag k="amenity" v="telephone"/>
    <tag k="operator" v="Telefónica O2"/>
  </node>
  <node id="2626403001" lat="50.0398044" lon="14.4103668">
    <tag k="amenity" v="telephone"/>
  </node>
  <node id="387185096" lat="50.0343381" lon="14.4157257">
    <tag k="amenity" v="telephone"/>
    <tag k="operator" v="Telefónica O2"/>
  </node>
  <node id="2626424027" lat="50.0367663" lon="14.4115992">
    <tag k="amenity" v="telephone"/>
  </node>
  <node id="766151676" lat="50.0465330" lon="14.4134592">
    <tag k="amenity" v="telephone"/>
    <tag k="operator" v="Telefónica O2"/>
  </node>
  <node id="1221945590" lat="50.0509666" lon="14.4098626">
    <tag k="amenity" v="telephone"/>
    <tag k="operator" v="Telefónica O2"/>
  </node>
  <node id="767595395" lat="50.0695457" lon="14.3665051">
    <tag k="amenity" v="telephone"/>
    <tag k="operator" v="Telefónica O2"/>
  </node>
  <node id="1684802057" lat="50.0722234" lon="14.3940057">
    <tag k="amenity" v="telephone"/>
  </node>
  <node id="4720298765" lat="50.0617564" lon="14.4086218">
    <tag k="amenity" v="telephone"/>
    <tag k="level" v="0"/>
  </node>
  <node id="4720298766" lat="50.0617604" lon="14.4086211">
    <tag k="amenity" v="telephone"/>
    <tag k="level" v="0"/>
  </node>
  <node id="2936622904" lat="50.0707529" lon="14.4103608">
    <tag k="amenity" v="telephone"/>
  </node>
  <node id="3897780794" lat="50.0673943" lon="14.4172640">
    <tag k="amenity" v="telephone"/>
  </node>
  <node id="330642993" lat="50.0766575" lon="14.4044769">
    <tag k="amenity" v="telephone"/>
    <tag k="operator" v="Telefónica O2"/>
    <tag k="source" v="CZ:IPRPraha:ortofoto"/>
  </node>
  <node id="1001866871" lat="50.0735616" lon="14.4035613">
    <tag k="amenity" v="telephone"/>
    <tag k="operator" v="Telefónica O2"/>
    <tag k="payment:coins" v="yes"/>
  </node>
  <node id="1719887911" lat="50.0759225" lon="14.4019243">
    <tag k="amenity" v="telephone"/>
  </node>
  <node id="1071061805" lat="50.0737560" lon="14.4071278">
    <tag k="amenity" v="telephone"/>
    <tag k="operator" v="Telefónica O2"/>
  </node>
  <node id="331959648" lat="50.0784931" lon="14.4159992">
    <tag k="amenity" v="telephone"/>
    <tag k="operator" v="Telefónica O2"/>
  </node>
  <node id="305079350" lat="50.0813209" lon="14.4077213">
    <tag k="amenity" v="telephone"/>
    <tag k="note" v="dvě telefonní budky vedle sebe"/>
    <tag k="operator" v="Telefónica O2"/>
  </node>
  <node id="1403098757" lat="50.0433091" lon="14.4415794">
    <tag k="amenity" v="telephone"/>
  </node>
  <node id="318514996" lat="50.0578248" lon="14.4331244">
    <tag k="amenity" v="telephone"/>
    <tag k="operator" v="Telefónica O2"/>
  </node>
  <node id="366700409" lat="50.0454537" lon="14.4479100">
    <tag k="amenity" v="telephone"/>
    <tag k="operator" v="Telefónica O2"/>
    <tag k="phone" v="+420241734069"/>
  </node>
  <node id="290017050" lat="50.0421384" lon="14.4605975">
    <tag k="amenity" v="telephone"/>
    <tag k="note" v="dva telefonní automaty"/>
    <tag k="operator" v="Telefónica O2"/>
  </node>
  <node id="344516721" lat="50.0420980" lon="14.4605391">
    <tag k="amenity" v="telephone"/>
    <tag k="note" v="dva telefonní automaty"/>
    <tag k="operator" v="Telefónica O2"/>
  </node>
  <node id="1282088746" lat="50.0508356" lon="14.4535366">
    <tag k="amenity" v="telephone"/>
    <tag k="operator" v="Telefónica O2"/>
  </node>
  <node id="528743789" lat="50.0509285" lon="14.4584211">
    <tag k="amenity" v="telephone"/>
    <tag k="operator" v="Telefónica O2"/>
  </node>
  <node id="539795494" lat="50.0658046" lon="14.4302489">
    <tag k="amenity" v="telephone"/>
    <tag k="note" v="dvě telefonní budky vedle sebe"/>
    <tag k="operator" v="Telefónica O2"/>
  </node>
  <node id="390536956" lat="50.0685280" lon="14.4229650">
    <tag k="amenity" v="telephone"/>
    <tag k="operator" v="Telefónica O2"/>
  </node>
  <node id="967521913" lat="50.0717597" lon="14.4185792">
    <tag k="amenity" v="telephone"/>
    <tag k="operator" v="Telefónica O2"/>
  </node>
  <node id="3897780793" lat="50.0677086" lon="14.4202719">
    <tag k="amenity" v="telephone"/>
  </node>
  <node id="359901084" lat="50.0720254" lon="14.4299338">
    <tag k="amenity" v="telephone"/>
    <tag k="note" v="dvě telefonní budky vedle sebe"/>
    <tag k="operator" v="Telefónica O2"/>
  </node>
  <node id="1269915368" lat="50.0704070" lon="14.4295577">
    <tag k="amenity" v="telephone"/>
    <tag k="operator" v="Telefónica O2"/>
  </node>
  <node id="2202099058" lat="50.0723744" lon="14.4262396">
    <tag k="amenity" v="telephone"/>
  </node>
  <node id="518149358" lat="50.0639639" lon="14.4410798">
    <tag k="amenity" v="telephone"/>
    <tag k="operator" v="Telefónica O2"/>
    <tag k="source" v="norc.cz"/>
  </node>
  <node id="539007642" lat="50.0650071" lon="14.4391773">
    <tag k="amenity" v="telephone"/>
    <tag k="operator" v="Telefónica O2"/>
  </node>
  <node id="714186399" lat="50.0724254" lon="14.4431469">
    <tag k="amenity" v="telephone"/>
    <tag k="operator" v="Telefónica O2"/>
  </node>
  <node id="305806058" lat="50.0773991" lon="14.4192729">
    <tag k="amenity" v="telephone"/>
    <tag k="operator" v="Telefónica O2"/>
  </node>
  <node id="340224216" lat="50.0758969" lon="14.4208191">
    <tag k="amenity" v="telephone"/>
    <tag k="note" v="dvě telefonní budky vedle sebe"/>
    <tag k="operator" v="Telefónica O2"/>
  </node>
  <node id="415004423" lat="50.0786788" lon="14.4197467">
    <tag k="amenity" v="telephone"/>
    <tag k="operator" v="Telefónica O2"/>
  </node>
  <node id="418831363" lat="50.0753660" lon="14.4238918">
    <tag k="amenity" v="telephone"/>
    <tag k="operator" v="Telefónica O2"/>
  </node>
  <node id="418958904" lat="50.0757152" lon="14.4221691">
    <tag k="amenity" v="telephone"/>
    <tag k="note" v="dvě telefonní budky vedle sebe"/>
    <tag k="operator" v="Telefónica O2"/>
  </node>
  <node id="679495738" lat="50.0741621" lon="14.4186474">
    <tag k="amenity" v="telephone"/>
    <tag k="operator" v="Telefónica O2"/>
  </node>
  <node id="2865756603" lat="50.0732372" lon="14.4212748">
    <tag k="amenity" v="telephone"/>
  </node>
  <node id="305808399" lat="50.0754765" lon="14.4261933">
    <tag k="amenity" v="telephone"/>
    <tag k="operator" v="Telefónica O2"/>
  </node>
  <node id="359945659" lat="50.0735732" lon="14.4280207">
    <tag k="amenity" v="telephone"/>
    <tag k="operator" v="Telefónica O2"/>
  </node>
  <node id="390354465" lat="50.0738417" lon="14.4308107">
    <tag k="amenity" v="telephone"/>
    <tag k="operator" v="Telefónica O2"/>
  </node>
  <node id="1208804230" lat="50.0771110" lon="14.4288091">
    <tag k="amenity" v="telephone"/>
    <tag k="operator" v="Telefónica O2"/>
  </node>
  <node id="2116433703" lat="50.0769864" lon="14.4248065">
    <tag k="amenity" v="telephone"/>
  </node>
  <node id="3347435034" lat="50.0793156" lon="14.4298555">
    <tag k="amenity" v="telephone"/>
    <tag k="layer" v="-1"/>
  </node>
  <node id="314789604" lat="50.0812322" lon="14.4256012">
    <tag k="amenity" v="telephone"/>
    <tag k="operator" v="Telefónica O2"/>
  </node>
  <node id="320808287" lat="50.0799226" lon="14.4299390">
    <tag k="amenity" v="telephone"/>
    <tag k="operator" v="Telefónica O2"/>
  </node>
  <node id="366266031" lat="50.0836089" lon="14.4305183">
    <tag k="amenity" v="telephone"/>
    <tag k="operator" v="Telefónica O2"/>
  </node>
  <node id="4799038028" lat="50.0799270" lon="14.4299326">
    <tag k="amenity" v="telephone"/>
    <tag k="operator" v="Telefónica O2"/>
  </node>
  <node id="4799113131" lat="50.0794937" lon="14.4301544">
    <tag k="amenity" v="telephone"/>
    <tag k="operator" v="Telefónica O2"/>
  </node>
  <node id="369388162" lat="50.0731636" lon="14.4418489">
    <tag k="amenity" v="telephone"/>
    <tag k="operator" v="Telefónica O2"/>
  </node>
  <node id="1305960052" lat="50.0719013" lon="14.4496720">
    <tag k="amenity" v="telephone"/>
    <tag k="operator" v="Telefónica O2"/>
  </node>
  <node id="1305960063" lat="50.0726649" lon="14.4441889">
    <tag k="amenity" v="telephone"/>
    <tag k="operator" v="Telefónica O2"/>
  </node>
  <node id="366696632" lat="50.0720811" lon="14.4534220">
    <tag k="amenity" v="telephone"/>
    <tag k="operator" v="Telefónica O2"/>
  </node>
  <node id="2202478234" lat="50.0709842" lon="14.4570317">
    <tag k="amenity" v="telephone"/>
    <tag k="operator" v="Telefónica O2"/>
  </node>
  <node id="320091565" lat="50.0770642" lon="14.4443750">
    <tag k="amenity" v="telephone"/>
    <tag k="operator" v="Telefónica O2"/>
  </node>
  <node id="322990381" lat="50.0760654" lon="14.4476378">
    <tag k="amenity" v="telephone"/>
    <tag k="operator" v="Telefónica O2"/>
  </node>
  <node id="322990398" lat="50.0753128" lon="14.4491885">
    <tag k="amenity" v="telephone"/>
    <tag k="note" v="dvě telefonní budky vedle sebe"/>
    <tag k="operator" v="Telefónica O2"/>
  </node>
  <node id="305825322" lat="50.0847114" lon="14.4462150">
    <tag k="amenity" v="telephone"/>
    <tag k="note" v="2 telefonní budky vedle sebe"/>
    <tag k="operator" v="Telefónica O2"/>
  </node>
  <node id="307458966" lat="50.0842309" lon="14.4499596">
    <tag k="amenity" v="telephone"/>
    <tag k="note" v="2 telefonní budky vedle sebe"/>
    <tag k="operator" v="Telefónica O2"/>
  </node>
  <node id="320245516" lat="50.0828631" lon="14.4572090">
    <tag k="amenity" v="telephone"/>
    <tag k="operator" v="O2"/>
  </node>
  <node id="2494978592" lat="50.0824234" lon="14.4518258">
    <tag k="amenity" v="telephone"/>
  </node>
  <node id="342315194" lat="50.0820548" lon="14.4591828">
    <tag k="amenity" v="telephone"/>
    <tag k="note" v="dvě telefonní budky vedle sebe"/>
    <tag k="operator" v="Telefónica O2"/>
  </node>
  <node id="332453161" lat="50.0888775" lon="14.3744508">
    <tag k="amenity" v="telephone"/>
    <tag k="operator" v="Telefónica O2"/>
  </node>
  <node id="308130241" lat="50.0989114" lon="14.3702212">
    <tag k="amenity" v="telephone"/>
    <tag k="operator" v="Telefónica O2"/>
  </node>
  <node id="330661401" lat="50.0959098" lon="14.3769007">
    <tag k="amenity" v="telephone"/>
    <tag k="operator" v="Telefónica O2"/>
  </node>
  <node id="358465576" lat="50.0983468" lon="14.3755958">
    <tag k="amenity" v="telephone"/>
    <tag k="operator" v="Telefónica O2"/>
  </node>
  <node id="338504971" lat="50.1105443" lon="14.3785837">
    <tag k="amenity" v="telephone"/>
    <tag k="operator" v="Telefónica O2"/>
  </node>
  <node id="332441509" lat="50.1006298" lon="14.3849158">
    <tag k="amenity" v="telephone"/>
    <tag k="operator" v="Telefónica O2"/>
  </node>
  <node id="303437978" lat="50.1004921" lon="14.3908564">
    <tag k="amenity" v="telephone"/>
    <tag k="note" v="dvě telefonní budky vedle sebe"/>
    <tag k="operator" v="Telefónica O2"/>
  </node>
  <node id="308375865" lat="50.1031352" lon="14.3903631">
    <tag k="amenity" v="telephone"/>
    <tag k="operator" v="Telefónica O2"/>
  </node>
  <node id="305223584" lat="50.0878155" lon="14.4041472">
    <tag k="amenity" v="telephone"/>
    <tag k="note" v="2 automaty vedle sebe"/>
    <tag k="operator" v="O2"/>
  </node>
  <node id="355300563" lat="50.0982098" lon="14.3949072">
    <tag k="amenity" v="telephone"/>
    <tag k="operator" v="Telefónica O2"/>
  </node>
  <node id="307318793" lat="50.0909727" lon="14.4095392">
    <tag k="amenity" v="telephone"/>
    <tag k="note" v="automat dole v podchodu"/>
    <tag k="operator" v="Telefónica O2"/>
    <tag k="phone" v="+420257530376"/>
  </node>
  <node id="3175113013" lat="50.0884138" lon="14.4161091">
    <tag k="amenity" v="telephone"/>
    <tag k="operator" v="O2"/>
  </node>
  <node id="307328071" lat="50.0999324" lon="14.3968190">
    <tag k="amenity" v="telephone"/>
    <tag k="operator" v="Telefónica O2"/>
    <tag k="phone" v="+420224312792"/>
  </node>
  <node id="318780717" lat="50.1006148" lon="14.3940943">
    <tag k="amenity" v="telephone"/>
    <tag k="layer" v="-1"/>
    <tag k="note" v="Telefonní automat, v podchodu pod zemí"/>
    <tag k="operator" v="Telefónica O2"/>
  </node>
  <node id="330610268" lat="50.1017917" lon="14.3955122">
    <tag k="amenity" v="telephone"/>
    <tag k="operator" v="Telefónica O2"/>
    <tag k="source" v="survey"/>
  </node>
  <node id="330610326" lat="50.1012775" lon="14.3964480">
    <tag k="amenity" v="telephone"/>
    <tag k="operator" v="Telefónica O2"/>
    <tag k="source" v="survey"/>
  </node>
  <node id="331441558" lat="50.1045632" lon="14.3929737">
    <tag k="amenity" v="telephone"/>
    <tag k="operator" v="Telefónica O2"/>
    <tag k="payment:coins" v="yes"/>
    <tag k="payment:telephone_cards" v="yes"/>
  </node>
  <node id="331950062" lat="50.1035899" lon="14.3981767">
    <tag k="amenity" v="telephone"/>
    <tag k="operator" v="Telefónica O2"/>
  </node>
  <node id="331950087" lat="50.1027237" lon="14.4005724">
    <tag k="amenity" v="telephone"/>
    <tag k="operator" v="Telefónica O2"/>
  </node>
  <node id="360171290" lat="50.1014558" lon="14.4021233">
    <tag k="amenity" v="telephone"/>
    <tag k="operator" v="Telefónica O2"/>
  </node>
  <node id="3336079824" lat="50.0880581" lon="14.4180054">
    <tag k="amenity" v="telephone"/>
  </node>
  <node id="529132086" lat="50.0879565" lon="14.4287965">
    <tag k="amenity" v="telephone"/>
    <tag k="note" v="dvě telefonní budky vedle sebe"/>
    <tag k="operator" v="Telefónica O2"/>
  </node>
  <node id="1102918350" lat="50.0920983" lon="14.4299706">
    <tag k="amenity" v="telephone"/>
    <tag k="operator" v="Telefónica O2"/>
  </node>
  <node id="339926203" lat="50.0872061" lon="14.4340543">
    <tag k="amenity" v="telephone"/>
    <tag k="operator" v="Telefónica O2"/>
  </node>
  <node id="354692389" lat="50.0900232" lon="14.4345415">
    <tag k="amenity" v="telephone"/>
    <tag k="operator" v="Telefónica O2"/>
  </node>
  <node id="488588577" lat="50.0893277" lon="14.4314766">
    <tag k="amenity" v="telephone"/>
    <tag k="note" v="2 telefonní budky vedle sebe"/>
    <tag k="operator" v="Telefónica O2"/>
  </node>
  <node id="4715110270" lat="50.0873047" lon="14.4343679">
    <tag k="amenity" v="telephone"/>
    <tag k="level" v="0"/>
  </node>
  <node id="367734073" lat="50.0902667" lon="14.4393996">
    <tag k="amenity" v="telephone"/>
    <tag k="note" v="dvě telefonní budky vedle sebe"/>
    <tag k="operator" v="Telefónica O2"/>
  </node>
  <node id="937503030" lat="50.0921364" lon="14.4426072">
    <tag k="amenity" v="telephone"/>
    <tag k="operator" v="Telefónica O2"/>
    <tag k="payment:coins" v="yes"/>
    <tag k="payment:telephone_cards" v="yes"/>
  </node>
  <node id="2640706815" lat="50.0899202" lon="14.4401950">
    <tag k="amenity" v="telephone"/>
  </node>
  <node id="310453034" lat="50.0987436" lon="14.4335958">
    <tag k="amenity" v="telephone"/>
    <tag k="note" v="2 budky vedle sebe"/>
    <tag k="operator" v="Telefónica O2"/>
  </node>
  <node id="1027849879" lat="50.0954321" lon="14.4366095">
    <tag k="amenity" v="telephone"/>
    <tag k="operator" v="Telefónica O2"/>
  </node>
  <node id="318021413" lat="50.0988702" lon="14.4430636">
    <tag k="amenity" v="telephone"/>
    <tag k="operator" v="Telefónica O2"/>
  </node>
  <node id="331950445" lat="50.1012733" lon="14.4182888">
    <tag k="amenity" v="telephone"/>
    <tag k="operator" v="Telefónica O2"/>
  </node>
  <node id="360328619" lat="50.1024317" lon="14.4231775">
    <tag k="amenity" v="telephone"/>
    <tag k="operator" v="Telefónica O2"/>
  </node>
  <node id="718329750" lat="50.1000217" lon="14.4272573">
    <tag k="amenity" v="telephone"/>
    <tag k="operator" v="Telefónica O2"/>
  </node>
  <node id="714161042" lat="50.1031361" lon="14.4337971">
    <tag k="amenity" v="telephone"/>
    <tag k="operator" v="Telefónica O2"/>
  </node>
  <node id="714162563" lat="50.1003092" lon="14.4334619">
    <tag k="amenity" v="telephone"/>
    <tag k="operator" v="Telefónica O2"/>
  </node>
  <node id="1005315512" lat="50.1006149" lon="14.4358049">
    <tag k="amenity" v="telephone"/>
    <tag k="operator" v="Telefónica O2"/>
  </node>
  <node id="1295966297" lat="50.1034578" lon="14.4353838">
    <tag k="amenity" v="telephone"/>
    <tag k="operator" v="Telefónica O2"/>
  </node>
  <node id="662719615" lat="50.0993571" lon="14.4386083">
    <tag k="amenity" v="telephone"/>
    <tag k="note" v="dole v podchodu"/>
    <tag k="operator" v="Telefónica O2"/>
  </node>
  <node id="1024975627" lat="50.1022938" lon="14.4434038">
    <tag k="amenity" v="telephone"/>
    <tag k="operator" v="Telefónica O2"/>
  </node>
  <node id="426193627" lat="50.0868760" lon="14.4455340">
    <tag k="amenity" v="telephone"/>
    <tag k="operator" v="Telefónica O2"/>
  </node>
  <node id="658936421" lat="50.0868094" lon="14.4498087">
    <tag k="amenity" v="telephone"/>
    <tag k="note" v="dvě telefonní budky vedle sebe"/>
    <tag k="operator" v="Telefónica O2"/>
  </node>
  <node id="4618505093" lat="50.0914524" lon="14.4450540">
    <tag k="amenity" v="telephone"/>
    <tag k="operator" v="O2"/>
    <tag k="phone" v="224816959"/>
  </node>
  <node id="392032702" lat="50.0876292" lon="14.4533806">
    <tag k="amenity" v="telephone"/>
    <tag k="operator" v="Telefónica O2"/>
  </node>
  <node id="534434275" lat="50.0873006" lon="14.4526369">
    <tag k="amenity" v="telephone"/>
    <tag k="operator" v="Telefónica O2"/>
  </node>
  <node id="1968330555" lat="50.0946717" lon="14.4550508">
    <tag k="amenity" v="telephone"/>
  </node>
  <node id="4970681940" lat="50.0937477" lon="14.4552069">
    <tag k="amenity" v="telephone"/>
    <tag k="operator" v="O2"/>
    <tag k="payment:coins" v="yes"/>
    <tag k="payment:telephone_cards" v="yes"/>
    <tag k="source" v="survey"/>
  </node>
  <node id="467964157" lat="50.0886523" lon="14.4615271">
    <tag k="amenity" v="telephone"/>
    <tag k="note" v="dvě telefonní budky vedle sebe"/>
    <tag k="operator" v="Telefónica O2"/>
  </node>
  <node id="305860599" lat="50.0887399" lon="14.4689283">
    <tag k="amenity" v="telephone"/>
    <tag k="operator" v="Telefónica O2"/>
  </node>
  <node id="306273863" lat="50.0872414" lon="14.4699800">
    <tag k="amenity" v="telephone"/>
    <tag k="operator" v="Telefónica O2"/>
    <tag k="source" v="CZ:IPRPraha:ortofoto"/>
  </node>
  <node id="316829897" lat="50.1027765" lon="14.4501174">
    <tag k="amenity" v="telephone"/>
    <tag k="note" v="2 telefonní budky vedle sebe"/>
    <tag k="operator" v="Telefónica O2"/>
  </node>
  <node id="1675035057" lat="50.1058222" lon="14.4549994">
    <tag k="amenity" v="telephone"/>
  </node>
  <node id="350566088" lat="50.1171810" lon="14.4328973">
    <tag k="amenity" v="telephone"/>
    <tag k="operator" v="Telefónica O2"/>
  </node>
  <node id="2088588200" lat="50.1146002" lon="14.4689189">
    <tag k="amenity" v="telephone"/>
  </node>
  <node id="1482388503" lat="50.0026787" lon="14.5151841">
    <tag k="amenity" v="telephone"/>
  </node>
  <node id="334399645" lat="50.0327198" lon="14.4818591">
    <tag k="amenity" v="telephone"/>
    <tag k="note" v="dva telefonní automaty vedle sebe"/>
    <tag k="operator" v="Telefónica O2"/>
  </node>
  <node id="4711791890" lat="50.0225273" lon="14.4865235">
    <tag k="amenity" v="telephone"/>
  </node>
  <node id="332147143" lat="50.0312327" lon="14.4917281">
    <tag k="amenity" v="telephone"/>
    <tag k="layer" v="-1"/>
    <tag k="note" v="automat v podchodu metra"/>
    <tag k="operator" v="Telefónica O2"/>
  </node>
  <node id="1094586228" lat="50.0320662" lon="14.5090610">
    <tag k="amenity" v="telephone"/>
    <tag k="operator" v="Telefónica O2"/>
  </node>
  <node id="305306719" lat="50.0304831" lon="14.5259660">
    <tag k="amenity" v="telephone"/>
    <tag k="note" v="4 telefonní automaty vedle sebe"/>
    <tag k="operator" v="Telefónica O2"/>
  </node>
  <node id="310322434" lat="50.0310652" lon="14.5286731">
    <tag k="amenity" v="telephone"/>
    <tag k="operator" v="Telefónica O2"/>
  </node>
  <node id="354736215" lat="50.0305075" lon="14.5286854">
    <tag k="amenity" v="telephone"/>
    <tag k="note" v="dvě telefonní budky vedle sebe"/>
    <tag k="operator" v="Telefónica O2"/>
  </node>
  <node id="1270186322" lat="50.0278009" lon="14.6182250">
    <tag k="amenity" v="telephone"/>
    <tag k="fixme" v="resurvey"/>
    <tag k="operator" v="Telefónica O2"/>
  </node>
  <node id="663518364" lat="50.0372151" lon="14.4777098">
    <tag k="amenity" v="telephone"/>
    <tag k="operator" v="Telefónica O2"/>
  </node>
  <node id="1370014434" lat="50.0471812" lon="14.4880631">
    <tag k="amenity" v="telephone"/>
    <tag k="operator" v="Telefónica O2"/>
  </node>
  <node id="1370014443" lat="50.0474282" lon="14.4893197">
    <tag k="amenity" v="telephone"/>
    <tag k="operator" v="Telefónica O2"/>
  </node>
  <node id="941532078" lat="50.0455303" lon="14.5188288">
    <tag k="amenity" v="telephone"/>
    <tag k="operator" v="Telefónica O2"/>
  </node>
  <node id="823297642" lat="50.0544207" lon="14.5074339">
    <tag k="amenity" v="telephone"/>
    <tag k="note" v="dvě telefonní budky vedle sebe"/>
    <tag k="operator" v="Telefónica O2"/>
  </node>
  <node id="945075083" lat="50.0470038" lon="14.5151359">
    <tag k="amenity" v="telephone"/>
    <tag k="operator" v="Telefónica O2"/>
    <tag k="payment:coins" v="yes"/>
  </node>
  <node id="1476704297" lat="50.0641210" lon="14.4712981">
    <tag k="amenity" v="telephone"/>
  </node>
  <node id="444581246" lat="50.0724904" lon="14.4703499">
    <tag k="amenity" v="telephone"/>
    <tag k="note" v="dvě telefonní budky vedle sebe"/>
    <tag k="operator" v="Telefónica O2"/>
  </node>
  <node id="1140143150" lat="50.0768190" lon="14.4879983">
    <tag k="amenity" v="telephone"/>
    <tag k="operator" v="Telefónica O2"/>
  </node>
  <node id="353085914" lat="50.0830324" lon="14.4872627">
    <tag k="amenity" v="telephone"/>
    <tag k="operator" v="Telefónica O2"/>
  </node>
  <node id="340188854" lat="50.0849541" lon="14.5110206">
    <tag k="amenity" v="telephone"/>
    <tag k="operator" v="Telefónica O2"/>
  </node>
  <node id="774088108" lat="50.0487853" lon="14.5426079">
    <tag k="amenity" v="telephone"/>
    <tag k="operator" v="Telefónica O2"/>
  </node>
  <node id="323137384" lat="50.0398423" lon="14.5602743">
    <tag k="amenity" v="telephone"/>
    <tag k="operator" v="Telefónica O2"/>
    <tag k="payment:coins" v="yes"/>
  </node>
  <node id="321059263" lat="50.0452583" lon="14.5580372">
    <tag k="amenity" v="telephone"/>
    <tag k="operator" v="Telefónica O2"/>
  </node>
  <node id="774034374" lat="50.0461942" lon="14.5574671">
    <tag k="amenity" v="telephone"/>
    <tag k="operator" v="Telefónica O2"/>
  </node>
  <node id="775241014" lat="50.0408746" lon="14.5657829">
    <tag k="amenity" v="telephone"/>
    <tag k="operator" v="Telefónica O2"/>
  </node>
  <node id="3558741134" lat="50.0479461" lon="14.5594550">
    <tag k="amenity" v="telephone"/>
  </node>
  <node id="903558134" lat="50.0545326" lon="14.5634403">
    <tag k="amenity" v="telephone"/>
    <tag k="operator" v="Telefónica O2"/>
  </node>
  <node id="307002591" lat="50.0948215" lon="14.4957845">
    <tag k="amenity" v="telephone"/>
    <tag k="operator" v="Telefónica O2"/>
    <tag k="phone" v="+420266310920"/>
  </node>
  <node id="307304751" lat="50.1032603" lon="14.4731739">
    <tag k="amenity" v="telephone"/>
    <tag k="level" v="-1"/>
    <tag k="note" v="2 automady dole v podchodu"/>
    <tag k="operator" v="Telefónica O2"/>
  </node>
  <node id="316726111" lat="50.1021123" lon="14.4737257">
    <tag k="amenity" v="telephone"/>
    <tag k="note" v="2 telefonní budky vedle sebe"/>
    <tag k="operator" v="Telefónica O2"/>
  </node>
  <node id="585175550" lat="50.1051119" lon="14.4738699">
    <tag k="amenity" v="telephone"/>
    <tag k="operator" v="Telefónica O2"/>
  </node>
  <node id="1133343763" lat="50.1027358" lon="14.4766500">
    <tag k="amenity" v="telephone"/>
    <tag k="operator" v="Telefónica O2"/>
  </node>
  <node id="1134868230" lat="50.1047195" lon="14.4729464">
    <tag k="amenity" v="telephone"/>
    <tag k="operator" v="Telefónica O2"/>
  </node>
  <node id="392006551" lat="50.1049633" lon="14.4831297">
    <tag k="amenity" v="telephone"/>
    <tag k="note" v="dvě telefonní budky vedle sebe"/>
    <tag k="operator" v="Telefónica O2"/>
  </node>
  <node id="2477316416" lat="50.1093923" lon="14.4722390">
    <tag k="amenity" v="telephone"/>
  </node>
  <node id="4983458199" lat="50.1089253" lon="14.4739913">
    <tag k="amenity" v="telephone"/>
  </node>
  <node id="387514142" lat="50.1064952" lon="14.4882238">
    <tag k="amenity" v="telephone"/>
    <tag k="note" v="dvě telefonní budky vedle sebe"/>
    <tag k="operator" v="Telefónica O2"/>
  </node>
  <node id="635692986" lat="50.1076316" lon="14.4898948">
    <tag k="amenity" v="telephone"/>
    <tag k="note" v="2 budky vedle sebe"/>
    <tag k="operator" v="Telefónica O2"/>
  </node>
  <node id="2047259060" lat="50.1062047" lon="14.4862500">
    <tag k="amenity" v="telephone"/>
    <tag k="source" v="survey"/>
  </node>
  <node id="314789953" lat="50.1066780" lon="14.4923626">
    <tag k="amenity" v="telephone"/>
    <tag k="operator" v="Telefónica O2"/>
    <tag k="phone" v="+420266310530"/>
  </node>
  <node id="315984630" lat="50.1060236" lon="14.4912843">
    <tag k="amenity" v="telephone"/>
    <tag k="operator" v="Telefónica O2"/>
  </node>
  <node id="366158161" lat="50.1064677" lon="14.4929430">
    <tag k="amenity" v="telephone"/>
    <tag k="note" v="tři telefonní automaty vedle sebe"/>
    <tag k="operator" v="Telefónica O2"/>
  </node>
  <node id="335951566" lat="50.0877015" lon="14.5067844">
    <tag k="amenity" v="telephone"/>
    <tag k="operator" v="Telefónica O2"/>
  </node>
  <node id="821144626" lat="50.0929048" lon="14.4989964">
    <tag k="amenity" v="telephone"/>
    <tag k="operator" v="Telefónica O2"/>
  </node>
  <node id="306689709" lat="50.0922665" lon="14.5118547">
    <tag k="amenity" v="telephone"/>
    <tag k="operator" v="Telefónica O2"/>
  </node>
  <node id="4123182264" lat="50.1142231" lon="14.4729877">
    <tag k="amenity" v="telephone"/>
  </node>
  <node id="325815019" lat="50.0981511" lon="14.5468391">
    <tag k="amenity" v="telephone"/>
    <tag k="operator" v="Telefónica O2"/>
  </node>
  <node id="1290020521" lat="50.0352803" lon="14.5932750">
    <tag k="amenity" v="telephone"/>
    <tag k="operator" v="Telefónica O2"/>
    <tag k="payment:coins" v="yes"/>
  </node>
  <node id="889425369" lat="50.0810720" lon="14.6173468">
    <tag k="amenity" v="telephone"/>
    <tag k="operator" v="Telefónica O2"/>
  </node>
  <node id="858394080" lat="50.1074527" lon="14.5786240">
    <tag k="amenity" v="telephone"/>
    <tag k="operator" v="Telefónica O2"/>
  </node>
  <node id="415050996" lat="50.1153538" lon="14.6131664">
    <tag k="amenity" v="telephone"/>
    <tag k="operator" v="Telefónica O2"/>
  </node>
  <node id="3903503932" lat="50.8059108" lon="14.0479781">
    <tag k="amenity" v="telephone"/>
    <tag k="operator" v="O2"/>
    <tag k="phone" v="+420475222611"/>
  </node>
  <node id="2378271599" lat="49.9323770" lon="15.9196852">
    <tag k="amenity" v="telephone"/>
    <tag k="operator" v="Telefonica O2"/>
    <tag k="source" v="gps"/>
  </node>
  <node id="5417949226" lat="50.4123402" lon="15.2950607">
    <tag k="amenity" v="telephone"/>
    <tag k="operator" v="O2"/>
    <tag k="phone" v="+420493522153"/>
  </node>
  <node id="5420769108" lat="50.3959336" lon="15.4711183">
    <tag k="amenity" v="telephone"/>
    <tag k="operator" v="O2"/>
    <tag k="phone" v="+420493597001"/>
  </node>
  <node id="3139912558" lat="50.2389622" lon="17.4490143">
    <tag k="amenity" v="telephone"/>
  </node>
  <node id="6439270074" lat="49.9322824" lon="17.6892033">
    <tag k="amenity" v="telephone"/>
  </node>
  <way id="487162235">
    <center lat="49.5380480" lon="13.9832847"/>
    <nd ref="4796695857"/>
    <nd ref="4796715275"/>
    <nd ref="4796715276"/>
    <nd ref="4796715277"/>
    <nd ref="4796695857"/>
    <tag k="amenity" v="telephone"/>
  </way>

</osm>
